SAUDISAT 1C (SO-50)     
1 27607U 02058C   26065.24519069  .00002366  00000+0  29613-3 0  9992
2 27607  64.5519  87.4255 0075185 281.3249  77.9416 14.82766526249196
SAUDISAT 2              
1 28371U 04025F   26065.26741368  .00000510  00000+0  12506-3 0  9990
2 28371  98.5496  62.6036 0023565 252.1741 107.6885 14.56612951150764
SAUDISAT 3              
1 31118U 07012B   26065.30108386  .00000557  00000+0  98177-4 0  9994
2 31118  98.1346  15.7070 0014335 189.6683 170.4250 14.71350131 12619
PISAT                   
1 41784U 16059B   26065.01020352  .00001344  00000+0  23710-3 0  9994
2 41784  97.8190  69.9116 0029248 172.3554 187.8104 14.68761988504594
FLYING LAPTOP           
1 42831U 17042G   26065.31036488  .00003389  00000+0  27262-3 0  9998
2 42831  97.4264 225.1346 0018832 106.3478 253.9819 15.00488681471028
SALSAT                  
1 46495U 20068K   26064.94066432  .00011056  00000+0  40601-3 0  9992
2 46495  97.8854  61.8531 0008538 312.5830  47.4688 15.28092628299584
